GLOBALSTAR M075         
1 37192U 10054E   24351.82700969 -.00000085  00000+0  10592-3 0  9991
2 37192  51.9967  16.7833 0000319  92.5133  78.0862 12.62270139653340
GLOBALSTAR M073         
1 37193U 10054F   24351.15896704 -.00000091  00000+0  69518-4 0  9991
2 37193  52.0070 292.4964 0000565  37.8731 335.7732 12.62273909654770
GLOBALSTAR M083         
1 37739U 11033A   24350.87271903 -.00000065  00000+0  21487-3 0  9994
2 37739  51.9848 242.3509 0000791  79.8079  12.1790 12.62269384623709
GLOBALSTAR M088         
1 37740U 11033B   24351.80689567 -.00000113  00000+0 -52251-4 0  9998
2 37740  51.9711 145.1479 0001034 109.1835  30.4922 12.62266613619655
GLOBALSTAR M091         
1 37741U 11033C   24350.79632052 -.00000111  00000+0 -40228-4 0  9992
2 37741  51.9991 111.4547 0001026 129.7960  34.3645 12.62271799620025
GLOBALSTAR M085         
1 37742U 11033D   24351.14510073 -.00000084  00000+0  11053-3 0  9992
2 37742  51.9882  61.5920 0000713 143.9156 227.0895 12.62270214621077
GLOBALSTAR M081         
1 37743U 11033E   24351.17290374 -.00000091  00000+0  72067-4 0  9996
2 37743  51.9971  64.1808 0000465 156.3028 221.2960 12.62274054621111
GLOBALSTAR M089         
1 37744U 11033F   24350.85067062 -.00000070  00000+0  18593-3 0  9997
2 37744  51.9951  19.4269 0000252  45.4276 126.2249 12.62273472621534
